[{"OBJECT_NAME":"JY1SAT (JO-97)","OBJECT_ID":"2018-099AX","EPOCH":"2026-03-09T16:28:19.890048","MEAN_MOTION":15.30302629,"ECCENTRICITY":0.00047232,"INCLINATION":97.4249,"RA_OF_ASC_NODE":131.3625,"ARG_OF_PERICENTER":256.6795,"MEAN_ANOMALY":103.3919,"EPHEMERIS_TYPE":0,"CLASSIFICATION_TYPE":"U","NORAD_CAT_ID":43803,"ELEMENT_SET_NO":999,"REV_AT_EPOCH":39839,"BSTAR":0.00060804308,"MEAN_MOTION_DOT":0.00017774,"MEAN_MOTION_DDOT":0},{"OBJECT_NAME":"STARLINK-32201","OBJECT_ID":"2024-183D","EPOCH":"2026-03-09T10:19:29.276544","MEAN_MOTION":15.30191196,"ECCENTRICITY":9.534e-5,"INCLINATION":53.16,"RA_OF_ASC_NODE":130.8022,"ARG_OF_PERICENTER":92.4645,"MEAN_ANOMALY":267.6464,"EPHEMERIS_TYPE":0,"CLASSIFICATION_TYPE":"U","NORAD_CAT_ID":61512,"ELEMENT_SET_NO":999,"REV_AT_EPOCH":7979,"BSTAR":1.508192e-5,"MEAN_MOTION_DOT":8.8e-7,"MEAN_MOTION_DDOT":0}]
